{
  "links" : {
    "next" : "https://api.nasa.gov/neo/rest/v1/feed?start_date=2004-01-23&end_date=2004-01-23&detailed=true&api_key=t0TVs3DtDT2H8Oy2Zy8m2eVrNsAVKAexjcZXUckd",
    "prev" : "https://api.nasa.gov/neo/rest/v1/feed?start_date=2004-01-21&end_date=2004-01-21&detailed=true&api_key=t0TVs3DtDT2H8Oy2Zy8m2eVrNsAVKAexjcZXUckd",
    "self" : "https://api.nasa.gov/neo/rest/v1/feed?start_date=2004-01-22&end_date=2004-01-22&detailed=true&api_key=t0TVs3DtDT2H8Oy2Zy8m2eVrNsAVKAexjcZXUckd"
  },
  "element_count" : 6,
  "near_earth_objects" : {
    "2004-01-22" : [ {
      "links" : {
        "self" : "https://api.nasa.gov/neo/rest/v1/neo/3172332?api_key=t0TVs3DtDT2H8Oy2Zy8m2eVrNsAVKAexjcZXUckd"
      },
      "neo_reference_id" : "3172332",
      "name" : "(2004 BV18)",
      "nasa_jpl_url" : "http://ssd.jpl.nasa.gov/sbdb.cgi?sstr=3172332",
      "absolute_magnitude_h" : 25.9,
      "estimated_diameter" : {
        "kilometers" : {
          "estimated_diameter_min" : 0.0175612318,
          "estimated_diameter_max" : 0.0392681082
        },
        "meters" : {
          "estimated_diameter_min" : 17.561231848,
          "estimated_diameter_max" : 39.2681081809
        },
        "miles" : {
          "estimated_diameter_min" : 0.0109120402,
          "estimated_diameter_max" : 0.0244000636
        },
        "feet" : {
          "estimated_diameter_min" : 57.6155918963,
          "estimated_diameter_max" : 128.8323800441
        }
      },
      "is_potentially_hazardous_asteroid" : false,
      "close_approach_data" : [ {
        "close_approach_date" : "2004-01-22",
        "epoch_date_close_approach" : 1074758400000,
        "relative_velocity" : {
          "kilometers_per_second" : "3.4957708838",
          "kilometers_per_hour" : "12584.7751815533",
          "miles_per_hour" : "7819.6898898935"
        },
        "miss_distance" : {
          "astronomical" : "0.0131898433",
          "lunar" : "5.1308488846",
          "kilometers" : "1973172.375",
          "miles" : "1226072.5"
        },
        "orbiting_body" : "Earth"
      } ],
      "orbital_data" : {
        "orbit_id" : "16",
        "orbit_determination_date" : "2017-04-06 09:13:16",
        "orbit_uncertainty" : "6",
        "minimum_orbit_intersection" : ".0137876",
        "jupiter_tisserand_invariant" : "4.878",
        "epoch_osculation" : "2458000.5",
        "eccentricity" : ".2542406985410635",
        "semi_major_axis" : "1.334539491181547",
        "inclination" : "2.171718302085568",
        "ascending_node_longitude" : "302.0661518023458",
        "orbital_period" : "563.1130233337132",
        "perihelion_distance" : ".995245238712915",
        "perihelion_argument" : "170.8418287935382",
        "aphelion_distance" : "1.673833743650179",
        "perihelion_time" : "2458086.918176293102",
        "mean_anomaly" : "304.7525768781944",
        "mean_motion" : ".6393032749779898",
        "equinox" : "J2000"
      }
    }, {
      "links" : {
        "self" : "https://api.nasa.gov/neo/rest/v1/neo/3311964?api_key=t0TVs3DtDT2H8Oy2Zy8m2eVrNsAVKAexjcZXUckd"
      },
      "neo_reference_id" : "3311964",
      "name" : "(2006 AM4)",
      "nasa_jpl_url" : "http://ssd.jpl.nasa.gov/sbdb.cgi?sstr=3311964",
      "absolute_magnitude_h" : 21.8,
      "estimated_diameter" : {
        "kilometers" : {
          "estimated_diameter_min" : 0.1160259082,
          "estimated_diameter_max" : 0.2594418179
        },
        "meters" : {
          "estimated_diameter_min" : 116.0259082094,
          "estimated_diameter_max" : 259.4418179074
        },
        "miles" : {
          "estimated_diameter_min" : 0.0720951346,
          "estimated_diameter_max" : 0.1612096218
        },
        "feet" : {
          "estimated_diameter_min" : 380.6624406898,
          "estimated_diameter_max" : 851.1870938635
        }
      },
      "is_potentially_hazardous_asteroid" : true,
      "close_approach_data" : [ {
        "close_approach_date" : "2004-01-22",
        "epoch_date_close_approach" : 1074758400000,
        "relative_velocity" : {
          "kilometers_per_second" : "14.5292241951",
          "kilometers_per_hour" : "52305.2071024108",
          "miles_per_hour" : "32500.4216020507"
        },
        "miss_distance" : {
          "astronomical" : "0.4080002554",
          "lunar" : "158.712097168",
          "kilometers" : "61035972",
          "miles" : "37925992"
        },
        "orbiting_body" : "Earth"
      } ],
      "orbital_data" : {
        "orbit_id" : "49",
        "orbit_determination_date" : "2017-04-06 09:09:25",
        "orbit_uncertainty" : "1",
        "minimum_orbit_intersection" : ".0112919",
        "jupiter_tisserand_invariant" : "5.957",
        "epoch_osculation" : "2458000.5",
        "eccentricity" : ".6491912426133525",
        "semi_major_axis" : ".9822113215329352",
        "inclination" : "4.134633666261345",
        "ascending_node_longitude" : "123.2021921171298",
        "orbital_period" : "355.5542142199191",
        "perihelion_distance" : ".3445683331980659",
        "perihelion_argument" : "139.774229826388",
        "aphelion_distance" : "1.619854309867805",
        "perihelion_time" : "2458094.917442837962",
        "mean_anomaly" : "264.4019784824076",
        "mean_motion" : "1.012503819677218",
        "equinox" : "J2000"
      }
    }, {
      "links" : {
        "self" : "https://api.nasa.gov/neo/rest/v1/neo/3009717?api_key=t0TVs3DtDT2H8Oy2Zy8m2eVrNsAVKAexjcZXUckd"
      },
      "neo_reference_id" : "3009717",
      "name" : "(1997 AC11)",
      "nasa_jpl_url" : "http://ssd.jpl.nasa.gov/sbdb.cgi?sstr=3009717",
      "absolute_magnitude_h" : 20.5,
      "estimated_diameter" : {
        "kilometers" : {
          "estimated_diameter_min" : 0.2111324448,
          "estimated_diameter_max" : 0.4721064988
        },
        "meters" : {
          "estimated_diameter_min" : 211.1324447897,
          "estimated_diameter_max" : 472.1064988055
        },
        "miles" : {
          "estimated_diameter_min" : 0.1311915784,
          "estimated_diameter_max" : 0.2933532873
        },
        "feet" : {
          "estimated_diameter_min" : 692.6917701639,
          "estimated_diameter_max" : 1548.9058855411
        }
      },
      "is_potentially_hazardous_asteroid" : false,
      "close_approach_data" : [ {
        "close_approach_date" : "2004-01-22",
        "epoch_date_close_approach" : 1074758400000,
        "relative_velocity" : {
          "kilometers_per_second" : "20.4593556822",
          "kilometers_per_hour" : "73653.6804557929",
          "miles_per_hour" : "45765.5327254342"
        },
        "miss_distance" : {
          "astronomical" : "0.1624680256",
          "lunar" : "63.2000656128",
          "kilometers" : "24304872",
          "miles" : "15102347"
        },
        "orbiting_body" : "Earth"
      } ],
      "orbital_data" : {
        "orbit_id" : "17",
        "orbit_determination_date" : "2017-04-06 09:18:02",
        "orbit_uncertainty" : "1",
        "minimum_orbit_intersection" : ".104459",
        "jupiter_tisserand_invariant" : "6.361",
        "epoch_osculation" : "2458000.5",
        "eccentricity" : ".3680124354472985",
        "semi_major_axis" : ".9132312882499038",
        "inclination" : "31.69247566309302",
        "ascending_node_longitude" : "116.9429967455163",
        "orbital_period" : "318.7642441440861",
        "perihelion_distance" : ".5771508177343829",
        "perihelion_argument" : "141.5508638541322",
        "aphelion_distance" : "1.249311758765425",
        "perihelion_time" : "2457888.109192686031",
        "mean_anomaly" : "126.9298278471278",
        "mean_motion" : "1.129361296360688",
        "equinox" : "J2000"
      }
    } ]
  }
}